start=new Date('2023-03-05T00:00:00.000Z').valueOf();
sats=[{"RA_OF_ASC_NODE":"214.0292","FILE":"3851350","MEAN_MOTION":"15.06407563","RCS_SIZE":"LARGE","ARG_OF_PERICENTER":"82.9146","APOAPSIS":"547.923","LAUNCH_DATE":"2020-10-24","OBJECT_NAME":"STARLINK-1835","SITE":"AFETR","ECCENTRICITY":"0.00010580","EPOCH":"2023-03-04T17:27:20.803104","GP_ID":"227506517","COUNTRY_CODE":"US","TLE_LINE2":"2 46782  53.0518 214.0292 0001058  82.9146 277.1963 15.06407563130876","REV_AT_EPOCH":"13087","CLASSIFICATION_TYPE":"U","INCLINATION":"53.0518","MEAN_ELEMENT_THEORY":"SGP4","TIME_SYSTEM":"UTC","OBJECT_TYPE":"PAYLOAD","REF_FRAME":"TEME","SEMIMAJOR_AXIS":"6925.325","CENTER_NAME":"EARTH","ELEMENT_SET_NO":"999","BSTAR":"0.00021047000000","OBJECT_ID":"2020-074AV","MEAN_MOTION_DDOT":"0.0000000000000","TLE_LINE1":"1 46782U 20074AV  23063.72732411  .00002856  00000-0  21047-3 0  9999","PERIAPSIS":"546.458","NORAD_CAT_ID":"46782","MEAN_MOTION_DOT":"0.00002856","MEAN_ANOMALY":"277.1963","EPHEMERIS_TYPE":"0","DECAY_DATE":null,"PERIOD":"95.592"},{"OBJECT_TYPE":"PAYLOAD","TIME_SYSTEM":"UTC","SEMIMAJOR_AXIS":"6925.335","CENTER_NAME":"EARTH","REF_FRAME":"TEME","BSTAR":"0.00013501000000","ELEMENT_SET_NO":"999","MEAN_MOTION_DDOT":"0.0000000000000","OBJECT_ID":"2020-074AW","NORAD_CAT_ID":"46783","PERIAPSIS":"545.952","TLE_LINE1":"1 46783U 20074AW  23063.80841503  .00001730  00000-0  13501-3 0  9998","MEAN_MOTION_DOT":"0.00001730","EPHEMERIS_TYPE":"0","DECAY_DATE":null,"PERIOD":"95.592","MEAN_ANOMALY":"271.5803","RA_OF_ASC_NODE":"213.6606","RCS_SIZE":"LARGE","ARG_OF_PERICENTER":"88.5392","FILE":"3851350","MEAN_MOTION":"15.06404511","LAUNCH_DATE":"2020-10-24","APOAPSIS":"548.447","OBJECT_NAME":"STARLINK-1851","GP_ID":"227505279","COUNTRY_CODE":"US","SITE":"AFETR","ECCENTRICITY":"0.00018010","EPOCH":"2023-03-04T19:24:07.058592","INCLINATION":"53.0514","TLE_LINE2":"2 46783  53.0514 213.6606 0001801  88.5392 271.5803 15.06404511130880","REV_AT_EPOCH":"13088","CLASSIFICATION_TYPE":"U","MEAN_ELEMENT_THEORY":"SGP4"},{"LAUNCH_DATE":"2020-10-24","APOAPSIS":"548.275","RCS_SIZE":"LARGE","ARG_OF_PERICENTER":"80.3765","MEAN_MOTION":"15.06401965","FILE":"3851350","RA_OF_ASC_NODE":"214.2406","MEAN_ELEMENT_THEORY":"SGP4","INCLINATION":"53.0543","REV_AT_EPOCH":"13086","TLE_LINE2":"2 46784  53.0543 214.2406 0001542  80.3765 279.7398 15.06401965130861","CLASSIFICATION_TYPE":"U","GP_ID":"227505528","COUNTRY_CODE":"US","SITE":"AFETR","ECCENTRICITY":"0.00015420","EPOCH":"2023-03-04T16:16:59.372544","OBJECT_NAME":"STARLINK-1882","MEAN_MOTION_DDOT":"0.0000000000000","OBJECT_ID":"2020-074AX","BSTAR":"0.00013729000000","ELEMENT_SET_NO":"999","SEMIMAJOR_AXIS":"6925.343","CENTER_NAME":"EARTH","REF_FRAME":"TEME","OBJECT_TYPE":"PAYLOAD","TIME_SYSTEM":"UTC","EPHEMERIS_TYPE":"0","DECAY_DATE":null,"PERIOD":"95.592","MEAN_ANOMALY":"279.7398","MEAN_MOTION_DOT":"0.00001764","NORAD_CAT_ID":"46784","PERIAPSIS":"546.140","TLE_LINE1":"1 46784U 20074AX  23063.67846496  .00001764  00000-0  13729-3 0  9999"},{"ELEMENT_SET_NO":"999","BSTAR":"0.00013923000000","OBJECT_ID":"2020-074AY","MEAN_MOTION_DDOT":"0.0000000000000","TIME_SYSTEM":"UTC","OBJECT_TYPE":"PAYLOAD","REF_FRAME":"TEME","SEMIMAJOR_AXIS":"6925.331","CENTER_NAME":"EARTH","MEAN_ANOMALY":"276.5874","DECAY_DATE":null,"PERIOD":"95.592","EPHEMERIS_TYPE":"0","TLE_LINE1":"1 46785U 20074AY  23063.73101124  .00001793  00000-0  13923-3 0  9997","PERIAPSIS":"546.034","NORAD_CAT_ID":"46785","MEAN_MOTION_DOT":"0.00001793","APOAPSIS":"548.357","LAUNCH_DATE":"2020-10-24","RA_OF_ASC_NODE":"214.0117","MEAN_MOTION":"15.06405841","FILE":"3851350","RCS_SIZE":"LARGE","ARG_OF_PERICENTER":"83.5306","TLE_LINE2":"2 46785  53.0545 214.0117 0001677  83.5306 276.5874 15.06405841130878","REV_AT_EPOCH":"13087","CLASSIFICATION_TYPE":"U","INCLINATION":"53.0545","MEAN_ELEMENT_THEORY":"SGP4","OBJECT_NAME":"STARLINK-1883","ECCENTRICITY":"0.00016770","SITE":"AFETR","EPOCH":"2023-03-04T17:32:39.371136","GP_ID":"227506280","COUNTRY_CODE":"US"},{"APOAPSIS":"547.997","LAUNCH_DATE":"2020-10-24","FILE":"3851350","MEAN_MOTION":"15.06416461","RCS_SIZE":"LARGE","ARG_OF_PERICENTER":"80.7269","RA_OF_ASC_NODE":"193.8068","MEAN_ELEMENT_THEORY":"SGP4","TLE_LINE2":"2 46786  53.0517 193.8068 0001204  80.7269 279.3856 15.06416461131164","REV_AT_EPOCH":"13116","CLASSIFICATION_TYPE":"U","INCLINATION":"53.0517","SITE":"AFETR","ECCENTRICITY":"0.00012040","EPOCH":"2023-03-04T18:38:59.695584","GP_ID":"227506018","COUNTRY_CODE":"US","OBJECT_NAME":"STARLINK-1893","OBJECT_ID":"2020-074AZ","MEAN_MOTION_DDOT":"0.0000000000000","ELEMENT_SET_NO":"999","BSTAR":"0.00051776000000","REF_FRAME":"TEME","SEMIMAJOR_AXIS":"6925.298","CENTER_NAME":"EARTH","TIME_SYSTEM":"UTC","OBJECT_TYPE":"PAYLOAD","MEAN_ANOMALY":"279.3856","DECAY_DATE":null,"EPHEMERIS_TYPE":"0","PERIOD":"95.591","MEAN_MOTION_DOT":"0.00007442","TLE_LINE1":"1 46786U 20074AZ  23063.77707981  .00007442  00000-0  51776-3 0  9990","PERIAPSIS":"546.329","NORAD_CAT_ID":"46786"},{"FILE":"3851350","MEAN_MOTION":"15.06417512","RCS_SIZE":"LARGE","ARG_OF_PERICENTER":"105.9175","RA_OF_ASC_NODE":"193.8398","APOAPSIS":"548.141","LAUNCH_DATE":"2020-10-24","ECCENTRICITY":"0.00014160","SITE":"AFETR","EPOCH":"2023-03-04T18:28:22.881792","GP_ID":"227504781","COUNTRY_CODE":"US","OBJECT_NAME":"STARLINK-1899","MEAN_ELEMENT_THEORY":"SGP4","REV_AT_EPOCH":"13116","TLE_LINE2":"2 46787  53.0532 193.8398 0001416 105.9175 254.1970 15.06417512131165","CLASSIFICATION_TYPE":"U","INCLINATION":"53.0532","REF_FRAME":"TEME","SEMIMAJOR_AXIS":"6925.295","CENTER_NAME":"EARTH","TIME_SYSTEM":"UTC","OBJECT_TYPE":"PAYLOAD","OBJECT_ID":"2020-074BA","MEAN_MOTION_DDOT":"0.0000000000000","ELEMENT_SET_NO":"999","BSTAR":"0.00115810000000","MEAN_MOTION_DOT":"0.00017019","PERIAPSIS":"546.179","TLE_LINE1":"1 46787U 20074BA  23063.76970928  .00017019  00000-0  11581-2 0  9993","NORAD_CAT_ID":"46787","MEAN_ANOMALY":"254.1970","EPHEMERIS_TYPE":"0","DECAY_DATE":null,"PERIOD":"95.591"},{"MEAN_ANOMALY":"236.6103","EPHEMERIS_TYPE":"0","DECAY_DATE":null,"PERIOD":"95.591","TLE_LINE1":"1 46788U 20074BB  23063.82868303  .00014543  00000-0  99279-3 0  9994","PERIAPSIS":"546.457","NORAD_CAT_ID":"46788","MEAN_MOTION_DOT":"0.00014543","ELEMENT_SET_NO":"999","BSTAR":"0.00099279000000","OBJECT_ID":"2020-074BB","MEAN_MOTION_DDOT":"0.0000000000000","TIME_SYSTEM":"UTC","OBJECT_TYPE":"PAYLOAD","REF_FRAME":"TEME","SEMIMAJOR_AXIS":"6925.306","CENTER_NAME":"EARTH","TLE_LINE2":"2 46788  53.0529 193.5736 0001031 123.4985 236.6103 15.06414046131175","REV_AT_EPOCH":"13117","CLASSIFICATION_TYPE":"U","INCLINATION":"53.0529","MEAN_ELEMENT_THEORY":"SGP4","OBJECT_NAME":"STARLINK-1929","SITE":"AFETR","ECCENTRICITY":"0.00010310","EPOCH":"2023-03-04T19:53:18.213792","GP_ID":"227505029","COUNTRY_CODE":"US","APOAPSIS":"547.885","LAUNCH_DATE":"2020-10-24","RA_OF_ASC_NODE":"193.5736","FILE":"3851350","MEAN_MOTION":"15.06414046","RCS_SIZE":"LARGE","ARG_OF_PERICENTER":"123.4985"},{"LAUNCH_DATE":"2020-10-24","APOAPSIS":"547.851","RCS_SIZE":"LARGE","ARG_OF_PERICENTER":"77.1876","FILE":"3851350","MEAN_MOTION":"15.06412729","RA_OF_ASC_NODE":"223.6380","MEAN_ELEMENT_THEORY":"SGP4","INCLINATION":"53.0498","TLE_LINE2":"2 46789  53.0498 223.6380 0000977  77.1876 282.9222 15.06412729130758","REV_AT_EPOCH":"13075","CLASSIFICATION_TYPE":"U","GP_ID":"227505781","COUNTRY_CODE":"US","SITE":"AFETR","ECCENTRICITY":"0.00009770","EPOCH":"2023-03-04T20:26:30.548544","OBJECT_NAME":"STARLINK-1930","MEAN_MOTION_DDOT":"0.0000000000000","OBJECT_ID":"2020-074BC","BSTAR":"0.00053677000000","ELEMENT_SET_NO":"999","SEMIMAJOR_AXIS":"6925.310","CENTER_NAME":"EARTH","REF_FRAME":"TEME","OBJECT_TYPE":"PAYLOAD","TIME_SYSTEM":"UTC","PERIOD":"95.591","DECAY_DATE":null,"EPHEMERIS_TYPE":"0","MEAN_ANOMALY":"282.9222","MEAN_MOTION_DOT":"0.00007725","NORAD_CAT_ID":"46789","PERIAPSIS":"546.498","TLE_LINE1":"1 46789U 20074BC  23063.85174246  .00007725  00000-0  53677-3 0  9990"},{"APOAPSIS":"548.012","LAUNCH_DATE":"2020-10-24","RA_OF_ASC_NODE":"223.9283","FILE":"3851350","MEAN_MOTION":"15.06403945","ARG_OF_PERICENTER":"83.6272","RCS_SIZE":"LARGE","CLASSIFICATION_TYPE":"U","REV_AT_EPOCH":"13073","TLE_LINE2":"2 46790  53.0533 223.9283 0001170  83.6272 276.4850 15.06403945130736","INCLINATION":"53.0533","MEAN_ELEMENT_THEORY":"SGP4","OBJECT_NAME":"STARLINK-1931","EPOCH":"2023-03-04T17:57:52.248096","SITE":"AFETR","ECCENTRICITY":"0.00011700","COUNTRY_CODE":"US","GP_ID":"227506518","ELEMENT_SET_NO":"999","BSTAR":"0.00163550000000","OBJECT_ID":"2020-074BD","MEAN_MOTION_DDOT":"0.0000000000000","TIME_SYSTEM":"UTC","OBJECT_TYPE":"PAYLOAD","REF_FRAME":"TEME","CENTER_NAME":"EARTH","SEMIMAJOR_AXIS":"6925.336","MEAN_ANOMALY":"276.4850","EPHEMERIS_TYPE":"0","DECAY_DATE":null,"PERIOD":"95.592","TLE_LINE1":"1 46790U 20074BD  23063.74852139  .00024166  00000-0  16355-2 0  9993","PERIAPSIS":"546.391","NORAD_CAT_ID":"46790","MEAN_MOTION_DOT":"0.00024166"},{"MEAN_ELEMENT_THEORY":"SGP4","TLE_LINE2":"2 46791  53.0502 223.5709 0001213  81.3208 278.7919 15.06412654130754","REV_AT_EPOCH":"13075","CLASSIFICATION_TYPE":"U","INCLINATION":"53.0502","ECCENTRICITY":"0.00012130","SITE":"AFETR","EPOCH":"2023-03-04T19:54:38.204640","GP_ID":"227505280","COUNTRY_CODE":"US","OBJECT_NAME":"STARLINK-1933","APOAPSIS":"548.015","LAUNCH_DATE":"2020-10-24","FILE":"3851350","MEAN_MOTION":"15.06412654","RCS_SIZE":"LARGE","ARG_OF_PERICENTER":"81.3208","RA_OF_ASC_NODE":"223.5709","MEAN_ANOMALY":"278.7919","PERIOD":"95.591","DECAY_DATE":null,"EPHEMERIS_TYPE":"0","MEAN_MOTION_DOT":"0.00007992","TLE_LINE1":"1 46791U 20074BE  23063.82960885  .00007992  00000-0  55462-3 0  9992","PERIAPSIS":"546.335","NORAD_CAT_ID":"46791","OBJECT_ID":"2020-074BE","MEAN_MOTION_DDOT":"0.0000000000000","ELEMENT_SET_NO":"999","BSTAR":"0.00055462000000","REF_FRAME":"TEME","SEMIMAJOR_AXIS":"6925.310","CENTER_NAME":"EARTH","TIME_SYSTEM":"UTC","OBJECT_TYPE":"PAYLOAD"}];
